BLUEBON                 
1 62688U 25009CH  26068.70316231  .00010452  00000+0  37313-3 0  9992
2 62688  97.4017 152.2033 0001193  43.3900 316.7434 15.29047253 63767
STARLINK-36540          
1 67511U 26012U   26068.39742260  .00029617  00000+0  10815-2 0  9997
2 67511  42.9903 316.3747 0000993 107.9726 252.1234 15.27578005  7717
